{
    "links": {
        "self": "http://www.neowsapp.com/rest/v1/neo/54091636?api_key=iIulBulltgU6a56xZRHN4H3l9WmuAYTsLGpBGhQ2"
    },
    "id": "54091636",
    "neo_reference_id": "54091636",
    "name": "(2020 WS1)",
    "designation": "2020 WS1",
    "nasa_jpl_url": "http://ssd.jpl.nasa.gov/sbdb.cgi?sstr=54091636",
    "absolute_magnitude_h": 27.147,
    "estimated_diameter": {
        "kilometers": {
            "estimated_diameter_min": 0.0098890592,
            "estimated_diameter_max": 0.0221126086
        },
        "meters": {
            "estimated_diameter_min": 9.8890591964,
            "estimated_diameter_max": 22.1126085966
        },
        "miles": {
            "estimated_diameter_min": 0.0061447746,
            "estimated_diameter_max": 0.0137401337
        },
        "feet": {
            "estimated_diameter_min": 32.4444209739,
            "estimated_diameter_max": 72.5479307882
        }
    },
    "is_potentially_hazardous_asteroid": false,
    "close_approach_data": [
        {
            "close_approach_date": "2017-11-30",
            "close_approach_date_full": "2017-Nov-30 15:07",
            "epoch_date_close_approach": 1512054420000,
            "relative_velocity": {
                "kilometers_per_second": "12.6037753196",
                "kilometers_per_hour": "45373.5911505733",
                "miles_per_hour": "28193.3850124215"
            },
            "miss_distance": {
                "astronomical": "0.0799800012",
                "lunar": "31.1122204668",
                "kilometers": "11964837.822117444",
                "miles": "7434605.4754269672"
            },
            "orbiting_body": "Earth"
        },
        {
            "close_approach_date": "2020-11-20",
            "close_approach_date_full": "2020-Nov-20 18:05",
            "epoch_date_close_approach": 1605895500000,
            "relative_velocity": {
                "kilometers_per_second": "13.9092589286",
                "kilometers_per_hour": "50073.3321430954",
                "miles_per_hour": "31113.6212974694"
            },
            "miss_distance": {
                "astronomical": "0.0095291914",
                "lunar": "3.7068554546",
                "kilometers": "1425546.736262318",
                "miles": "885793.6671152684"
            },
            "orbiting_body": "Moon"
        },
        {
            "close_approach_date": "2020-11-20",
            "close_approach_date_full": "2020-Nov-20 18:05",
            "epoch_date_close_approach": 1605895500000,
            "relative_velocity": {
                "kilometers_per_second": "13.3381878127",
                "kilometers_per_hour": "48017.4761256037",
                "miles_per_hour": "29836.1923181564"
            },
            "miss_distance": {
                "astronomical": "0.0077265249",
                "lunar": "3.0056181861",
                "kilometers": "1155871.667541963",
                "miles": "718225.3496585694"
            },
            "orbiting_body": "Earth"
        },
        {
            "close_approach_date": "2023-11-03",
            "close_approach_date_full": "2023-Nov-03 20:52",
            "epoch_date_close_approach": 1699044720000,
            "relative_velocity": {
                "kilometers_per_second": "17.2038044155",
                "kilometers_per_hour": "61933.6958958655",
                "miles_per_hour": "38483.1900970727"
            },
            "miss_distance": {
                "astronomical": "0.2086330243",
                "lunar": "81.1582464527",
                "kilometers": "31211056.046938241",
                "miles": "19393650.9320240858"
            },
            "orbiting_body": "Earth"
        },
        {
            "close_approach_date": "2026-10-21",
            "close_approach_date_full": "2026-Oct-21 06:20",
            "epoch_date_close_approach": 1792563600000,
            "relative_velocity": {
                "kilometers_per_second": "22.223050975",
                "kilometers_per_hour": "80002.9835101156",
                "miles_per_hour": "49710.7427260493"
            },
            "miss_distance": {
                "astronomical": "0.4119647955",
                "lunar": "160.2543054495",
                "kilometers": "61629055.921785585",
                "miles": "38294519.609327673"
            },
            "orbiting_body": "Earth"
        }
    ],
    "orbital_data": {
        "orbit_id": "3",
        "orbit_determination_date": "2020-11-22 05:20:02",
        "first_observation_date": "2020-11-19",
        "last_observation_date": "2020-11-21",
        "data_arc_in_days": 2,
        "observations_used": 61,
        "orbit_uncertainty": "7",
        "minimum_orbit_intersection": ".00775694",
        "jupiter_tisserand_invariant": "3.524",
        "epoch_osculation": "2459000.5",
        "eccentricity": ".5347830714963584",
        "semi_major_axis": "2.07126255393155",
        "inclination": "18.32457638511865",
        "ascending_node_longitude": "58.45070257991265",
        "orbital_period": "1088.807634556861",
        "perihelion_distance": ".9635864034646442",
        "perihelion_argument": "24.9376788168092",
        "aphelion_distance": "3.178938704398456",
        "perihelion_time": "2459193.743693730822",
        "mean_anomaly": "296.1065007856879",
        "mean_motion": ".3306369174629438",
        "equinox": "J2000",
        "orbit_class": {
            "orbit_class_type": "APO",
            "orbit_class_description": "Near-Earth asteroid orbits which cross the Earth’s orbit similar to that of 1862 Apollo",
            "orbit_class_range": "a (semi-major axis) > 1.0 AU; q (perihelion) < 1.017 AU"
        }
    },
    "is_sentry_object": false
}